LEMUR-1                 
1 40044U 14033AL  26182.98034646  .00001966  00000+0  23032-3 0  9996
2 40044  97.7893 332.4579 0048872  31.1462 329.2633 14.85300755647661
LEMUR-2-GREENBERG       
1 42837U 17042N   26182.98360317  .00020442  00000+0  66704-3 0  9991
2 42837  97.3819   3.5442 0007372 316.1836  43.8820 15.31785155490658
LEMUR-2-ANDIS           
1 42838U 17042P   26182.97840711  .00026632  00000+0  77338-3 0  9994
2 42838  97.3676   3.7752 0007231 313.8554  46.2092 15.35442998490726
LEMUR-2-MONSON          
1 42839U 17042Q   26183.28647999  .00017379  00000+0  62924-3 0  9996
2 42839  97.4082   3.7949 0005202 304.4327  55.6421 15.28450558490472
LEMUR-2-FURIAUS         
1 42840U 17042R   26183.24913785  .00019959  00000+0  67270-3 0  9998
2 42840  97.3769   1.7296 0007045  19.2427 340.9078 15.30747102490517
LEMUR-2-PETERG          
1 42841U 17042S   26183.23247652  .00027780  00000+0  83013-3 0  9995
2 42841  97.3990   8.2926 0002725 283.8794  76.2146 15.34553854490745
LEMUR-2-DEMBITZ         
1 42842U 17042T   26183.00729528  .00020050  00000+0  67602-3 0  9997
2 42842  97.3820   4.5246 0005515 333.0690  27.0264 15.30744259490613
LEMUR-2-ZACHARY         
1 42845U 17042W   26183.03002725  .00055860  00000+0  93850-3 0  9997
2 42845  97.3582  14.9941 0002327 316.8450  43.2619 15.51591962491506
LEMUR-2-AMANDA-SVANTE   
1 48269U 21034B   26183.15793432  .00038104  00000+0  11125-2 0  9990
2 48269  97.5758 261.8465 0003717 171.8566 188.2738 15.35218375283354
LEMUR-2-SPECIAL-K       
1 48273U 21034F   26183.22285882  .00221709  00000+0  18431-2 0  9990
2 48273  97.5644 271.2193 0005400 221.4066 138.6787 15.69457826284047
LEMUR-2-EMBRIONOVIS     
1 56970U 23084AQ  26183.29865437  .00015478  00000+0  41657-3 0  9998
2 56970  97.6314 328.0823 0007551 257.7301 102.3098 15.37933057170002
LEMUR-2-DEVERILL-M-T    
1 57391U 23100F   26183.04811248  .00032191  00000+0  79367-3 0  9999
2 57391  99.4456 226.1054 0005090 354.3467   5.7714 15.40499486163532
LEMUR-2-BASS            
1 58259U 23174D   26183.18766052  .00020512  00000+0  45695-3 0  9992
2 58259  97.3851 268.1139 0008101 116.9436 243.2641 15.43602647147679
LEMUR-2-JK0903EM1407    
1 58336U 23174CJ  26183.23053444  .00031463  00000+0  51455-3 0  9996
2 58336  97.3931 274.1320 0004698  73.9762 286.2007 15.52462600148064
LEMUR-2-MJR092620       
1 58340U 23174CN  26183.24818421  .00022268  00000+0  46621-3 0  9998
2 58340  97.3981 273.5593 0006409  72.6436 287.5513 15.45437488147978
LEMUR-2-NIMBUS2000      
1 58899U 24022A   26183.15080659  .00025270  00000+0  62046-3 0  9999
2 58899  97.4089  33.3439 0009912  70.6787 289.5531 15.40617918134574
LEMUR-2-VALHALLA        
1 58900U 24022B   26183.08588958  .00019514  00000+0  48765-3 0  9995
2 58900  97.4085  33.2597 0010425  66.4990 293.7351 15.40127838134560
LEMUR-2-CAEL            
1 58903U 24022E   26183.08298479  .00020910  00000+0  50016-3 0  9998
2 58903  97.4069  34.2191 0008463  53.5552 306.6474 15.41462144134637
LEMUR-2-JOHNNYTRUONG    
1 59146U 24043BA  26183.15030145  .00047400  00000+0  55048-3 0  9996
2 59146  97.5386 335.7920 0004630 131.6167 228.5487 15.61616639130376
LEMUR-2-TOMATOKECHUP    
1 60471U 24149D   26183.21955199  .00012325  00000+0  34986-3 0  9994
2 60471  97.3798 265.3070 0002685 146.4226 213.7189 15.36345605104477
LEMUR-2-STELLA          
1 60533U 24149BT  26183.17109079  .00013479  00000+0  78522-3 0  9991
2 60533  97.6740 265.6937 0001148 101.5384 258.5975 15.12128587102763
LEMUR-2-MARHISYAM       
1 60536U 24149BW  26183.22314779  .00011380  00000+0  67429-3 0  9998
2 60536  97.6885 266.2106 0003271  91.2695 268.8910 15.11554661102757
LEMUR-2-AHMED-ASRAR     
1 60576U 24149DN  26183.17652480  .00014085  00000+0  79960-3 0  9998
2 60576  97.7011 268.3151 0000594 333.6618  26.4582 15.13051250102839
LEMUR-2-LLOYD           
1 60577U 24149DP  26183.22369000  .00011874  00000+0  74332-3 0  9999
2 60577  97.6751 264.3628 0005215 102.7784 257.4028 15.09534390102667
LEMUR-2-SQUIRRELCOMM    
1 60578U 24149DQ  26183.19283498  .00006842  00000+0  45695-3 0  9991
2 60578  97.6705 264.0574 0005247  15.8106 344.3284 15.07318940102660
LEMUR-2-SIERRINI        
1 60579U 24149DR  26183.18348268  .00014094  00000+0  84026-3 0  9997
2 60579  97.6843 265.8440 0006375 124.6261 235.5571 15.11266538102726
LEMUR-2-WILSON          
1 62694U 25009CP  26183.21945948  .00002952  00000+0  27357-3 0  9999
2 62694  97.7021 261.4204 0002927  16.1582 343.9732 14.95228821 79602
LEMUR-2-STAR-FOX        
1 62696U 25009CR  26183.20942276  .00008639  00000+0  65129-3 0  9998
2 62696  97.6947 264.7111 0004050  81.2751 278.8933 15.02698897 79818
LEMUR-2-ARIANNA         
1 62699U 25009CU  26183.20788418  .00008846  00000+0  66677-3 0  9996
2 62699  97.6888 264.4724 0004353  85.8139 274.3583 15.02696305 79812
LEMUR-2-ALISIA          
1 62706U 25009DB  26183.18296931  .00010404  00000+0  77726-3 0  9996
2 62706  97.6944 265.2496 0003094 170.5758 189.5526 15.02990865102414
